NORAD_CAT_ID,OBJECT_NAME,OBJECT_TYPE,EPOCH,MEAN_MOTION,ECCENTRICITY,INCLINATION,RA_OF_ASC_NODE,ARG_OF_PERICENTER,MEAN_ANOMALY,BSTAR,MEAN_MOTION_DOT,MEAN_MOTION_DDOT,TLE_LINE0,TLE_LINE1,TLE_LINE2,SEMIMAJOR_AXIS,PERIOD,APOGEE,PERIGEE,DECAYED
54063.0,STARLINK-5225,PAYLOAD,2024-07-13 15:18:32,15.08843879,0.0001403,53.2171,175.744,93.7325,266.3827,4.3157e-05,3.99e-06,0.0,0 STARLINK-5225,1 54063U 22136N   24195.63787855  .00000399  00000-0  43157-4 0  9997,2 54063  53.2171 175.7440 0001403  93.7325 266.3827 15.08843879 95656,6917.869,95.437,540.704,538.763,0.0
54063.0,STARLINK-5225,PAYLOAD,2024-07-14 05:37:01,15.08836295,0.0001422,53.2179,173.069,95.345,264.7704,3.5562e-05,2.78e-06,0.0,0 STARLINK-5225,1 54063U 22136N   24196.23404512  .00000278  00000-0  35562-4 0  9997,2 54063  53.2179 173.0690 0001422  95.3450 264.7704 15.08836295 95740,6917.892,95.438,540.74,538.773,0.0
54063.0,STARLINK-5225,PAYLOAD,2024-07-14 15:09:19,15.08844338,0.0001477,53.2183,171.2847,96.5101,263.6059,6.7004e-05,7.79e-06,0.0,0 STARLINK-5225,1 54063U 22136N   24196.63147908  .00000779  00000-0  67004-4 0  9996,2 54063  53.2183 171.2847 0001477  96.5101 263.6059 15.08844338 96283,6917.867,95.437,540.754,538.71,0.0
54063.0,STARLINK-5225,PAYLOAD,2024-07-15 05:27:48,15.08834975,0.0001503,53.2183,168.6091,103.5327,256.5832,7.9005e-06,-1.62e-06,0.0,0 STARLINK-5225,1 54063U 22136N   24197.22764849 -.00000162  00000-0  79005-5 0  9993,2 54063  53.2183 168.6091 0001503 103.5327 256.5832 15.08834975 96379,6917.896,95.438,540.801,538.721,0.0
54063.0,STARLINK-5225,PAYLOAD,2024-07-15 07:03:11,15.08836772,0.0001406,53.2181,168.3115,94.7985,265.3168,2.4138e-05,9.6e-07,0.0,0 STARLINK-5225,1 54063U 22136N   24197.29388714  .00000096  00000-0  24138-4 0  9994,2 54063  53.2181 168.3115 0001406  94.7985 265.3168 15.08836772 95909,6917.89,95.438,540.728,538.783,0.0
54063.0,STARLINK-5225,PAYLOAD,2024-07-15 15:00:06,15.08845775,0.0001413,53.2182,166.8246,92.823,267.2924,8.1351e-05,1.007e-05,0.0,0 STARLINK-5225,1 54063U 22136N   24197.62507982  .00001007  00000-0  81351-4 0  9994,2 54063  53.2182 166.8246 0001413  92.8230 267.2924 15.08845775 96431,6917.863,95.437,540.705,538.75,0.0
54063.0,STARLINK-5225,PAYLOAD,2024-07-16 05:18:36,15.08830699,0.000152,53.2178,164.148,94.0875,266.0291,1.3216e-06,-2.67e-06,0.0,0 STARLINK-5225,1 54063U 22136N   24198.22125482 -.00000267  00000-0  13216-5 0  9996,2 54063  53.2178 164.1480 0001520  94.0875 266.0291 15.08830699 96528,6917.909,95.438,540.825,538.722,0.0
54063.0,STARLINK-5225,PAYLOAD,2024-07-16 06:53:59,15.08833493,0.0001534,53.2179,163.8499,91.4026,268.7142,2.3744e-05,9e-07,0.0,0 STARLINK-5225,1 54063U 22136N   24198.28749285  .00000090  00000-0  23744-4 0  9994,2 54063  53.2179 163.8499 0001534  91.4026 268.7142 15.08833493 96056,6917.9,95.438,540.826,538.704,0.0
54063.0,STARLINK-5225,PAYLOAD,2024-07-17 05:09:23,15.08840981,0.0001335,53.2165,159.6863,82.9651,277.1493,6.0574e-05,6.76e-06,0.0,0 STARLINK-5225,1 54063U 22136N   24199.21484959  .00000676  00000-0  60574-4 0  9994,2 54063  53.2165 159.6863 0001335  82.9651 277.1493 15.08840981 96678,6917.877,95.437,540.666,538.819,0.0
54063.0,STARLINK-5225,PAYLOAD,2024-07-17 14:41:41,15.08853396,0.0001411,53.217,157.9035,84.8675,275.2478,0.0001544,2.171e-05,0.0,0 STARLINK-5225,1 54063U 22136N   24199.61228083  .00002171  00000-0  15440-3 0  9995,2 54063  53.2170 157.9035 0001411  84.8675 275.2478 15.08853396 96258,6917.839,95.437,540.681,538.728,0.0
54063.0,STARLINK-5225,PAYLOAD,2024-07-18 03:24:46,15.08842374,0.0001458,53.2154,155.5221,109.4249,250.6901,0.00014684,2.05e-05,0.0,0 STARLINK-5225,1 54063U 22136N   24200.14221011  .00002050  00000-0  14684-3 0  9995,2 54063  53.2154 155.5221 0001458 109.4249 250.6901 15.08842374 96817,6917.873,95.437,540.747,538.73,0.0
54063.0,STARLINK-5225,PAYLOAD,2024-07-18 14:32:28,15.08853099,0.0001604,53.2168,153.4365,102.3191,257.798,0.00022572,3.307e-05,0.0,0 STARLINK-5225,1 54063U 22136N   24200.60588351  .00003307  00000-0  22572-3 0  9990,2 54063  53.2168 153.4365 0001604 102.3191 257.7980 15.08853099 96887,6917.84,95.437,540.815,538.596,0.0
54063.0,STARLINK-5225,PAYLOAD,2024-07-19 03:15:34,15.08837007,0.0001527,53.2164,151.063,86.9367,273.18,-3.6497e-05,-8.69e-06,0.0,0 STARLINK-5225,1 54063U 22136N   24201.13581287 -.00000869  00000-0 -36497-4 0  9994,2 54063  53.2164 151.0630 0001527  86.9367 273.1800 15.08837007 96961,6917.89,95.438,540.811,538.698,0.0
54063.0,STARLINK-5225,PAYLOAD,2024-07-20 06:17:07,15.08840857,0.0002215,53.2171,146.0034,140.463,219.6524,0.00013672,1.888e-05,0.0,0 STARLINK-5225,1 54063U 22136N   24202.26188937  .00001888  00000-0  13672-3 0  9993,2 54063  53.2171 146.0034 0002215 140.4630 219.6524 15.08840857 97130,6917.878,95.438,541.275,538.21,0.0
54063.0,STARLINK-5225,PAYLOAD,2024-07-21 02:57:08,15.08830681,0.000123,53.2156,142.1421,93.7848,266.3285,0.0003549,5.363e-05,0.0,0 STARLINK-5225,1 54063U 22136N   24203.12302006  .00005363  00000-0  35490-3 0  9998,2 54063  53.2156 142.1421 0001230  93.7848 266.3285 15.08830681 97268,6917.909,95.438,540.625,538.923,0.0
54063.0,STARLINK-5225,PAYLOAD,2024-07-21 06:07:54,15.08838918,0.0001261,53.2153,141.5451,82.3469,277.7666,0.00010263,1.346e-05,0.0,0 STARLINK-5225,1 54063U 22136N   24203.25549444  .00001346  00000-0  10263-3 0  9999,2 54063  53.2153 141.5451 0001261  82.3469 277.7666 15.08838918 97280,6917.884,95.438,540.621,538.876,0.0
54063.0,STARLINK-5225,PAYLOAD,2024-07-22 02:47:55,15.08838183,0.0001196,53.2165,137.6792,79.7517,280.361,6.1106e-05,6.85e-06,0.0,0 STARLINK-5225,1 54063U 22136N   24204.11661942  .00000685  00000-0  61106-4 0  9991,2 54063  53.2165 137.6792 0001196  79.7517 280.3610 15.08838183 97416,6917.886,95.438,540.578,538.924,0.0
54063.0,STARLINK-5225,PAYLOAD,2024-07-23 12:11:01,15.08851249,0.0001396,53.2166,131.4378,88.8861,271.2291,0.00022896,3.359e-05,0.0,0 STARLINK-5225,1 54063U 22136N   24205.50765251  .00003359  00000-0  22896-3 0  9996,2 54063  53.2166 131.4378 0001396  88.8861 271.2291 15.08851249 97629,6917.846,95.437,540.677,538.745,0.0
54063.0,STARLINK-5225,PAYLOAD,2024-07-23 18:32:34,15.08845973,0.0002832,53.2162,130.251,85.8453,274.2862,0.00024857,3.67e-05,0.0,0 STARLINK-5225,1 54063U 22136N   24205.77262136  .00003670  00000-0  24857-3 0  9994,2 54063  53.2162 130.2510 0002832  85.8453 274.2862 15.08845973 97668,6917.862,95.437,541.686,537.768,0.0
54063.0,STARLINK-5225,PAYLOAD,2024-07-24 04:04:54,15.08828473,0.0001496,53.2163,128.4646,91.4078,268.7086,-3.7115e-06,-3.47e-06,0.0,0 STARLINK-5225,1 54063U 22136N   24206.17007060 -.00000347  00000-0 -37115-5 0  9995,2 54063  53.2163 128.4646 0001496  91.4078 268.7086 15.08828473 97728,6917.916,95.438,540.816,538.746,0.0
54063.0,STARLINK-5225,PAYLOAD,2024-07-24 18:23:21,15.08844209,0.0001431,53.2163,125.7872,93.6056,266.5099,0.00018082,2.591e-05,0.0,0 STARLINK-5225,1 54063U 22136N   24206.76622506  .00002591  00000-0  18082-3 0  9999,2 54063  53.2163 125.7872 0001431  93.6056 266.5099 15.08844209 97813,6917.868,95.437,540.722,538.743,0.0
54063.0,STARLINK-5225,PAYLOAD,2024-07-25 02:20:17,15.08855742,0.0001395,53.2157,124.301,91.8949,268.2203,0.00063811,9.886e-05,0.0,0 STARLINK-5225,1 54063U 22136N   24207.09742287  .00009886  00000-0  63811-3 0  9999,2 54063  53.2157 124.3010 0001395  91.8949 268.2203 15.08855742 97860,6917.832,95.437,540.662,538.732,0.0
54063.0,STARLINK-5225,PAYLOAD,2024-07-25 18:14:08,15.0886064,0.0001448,53.2158,121.3279,88.0536,272.0622,0.00060387,9.341e-05,0.0,0 STARLINK-5225,1 54063U 22136N   24207.75981933  .00009341  00000-0  60387-3 0  9996,2 54063  53.2158 121.3279 0001448  88.0536 272.0622 15.08860640 97966,6917.817,95.436,540.684,538.681,0.0
54063.0,STARLINK-5225,PAYLOAD,2024-07-26 00:35:40,15.08847844,0.0001328,53.2155,120.1357,105.0885,255.0254,7.2562e-05,8.67e-06,0.0,0 STARLINK-5225,1 54063U 22136N   24208.02477905  .00000867  00000-0  72562-4 0  9999,2 54063  53.2155 120.1357 0001328 105.0885 255.0254 15.08847844 98000,6917.856,95.437,540.64,538.803,0.0
54063.0,STARLINK-5225,PAYLOAD,2024-07-26 18:04:55,15.088521,0.000177,53.2175,116.866,99.6562,260.4631,0.00015681,2.209e-05,0.0,0 STARLINK-5225,1 54063U 22136N   24208.75341560  .00002209  00000-0  15681-3 0  9996,2 54063  53.2175 116.8660 0001770  99.6562 260.4631 15.08852100 97630,6917.843,95.437,540.933,538.484,0.0
54063.0,STARLINK-5225,PAYLOAD,2024-07-27 22:41:51,15.08821446,0.000127,53.217,111.5136,105.5289,254.5843,-0.00056345,-9.239e-05,0.0,0 STARLINK-5225,1 54063U 22136N   24209.94573191 -.00009239  00000-0 -56345-3 0  9999,2 54063  53.2170 111.5136 0001270 105.5289 254.5843 15.08821446 97811,6917.937,95.439,540.681,538.924,0.0
54063.0,STARLINK-5225,PAYLOAD,2024-07-28 00:17:14,15.08819462,9.65e-05,53.2159,111.2157,82.4246,277.6856,-0.00066149,-0.00010794,0.0,0 STARLINK-5225,1 54063U 22136N   24210.01197157 -.00010794  00000-0 -66149-3 0  9994,2 54063  53.2159 111.2157 0000965  82.4246 277.6856 15.08819462 98304,6917.943,95.439,540.476,539.141,0.0
54063.0,STARLINK-5225,PAYLOAD,2024-07-28 22:32:39,15.08829165,8.48e-05,53.2157,107.0498,71.9101,288.1984,0.00078039,0.0001215,0.0,0 STARLINK-5225,1 54063U 22136N   24210.93934729  .00012150  00000-0  78039-3 0  9996,2 54063  53.2157 107.0498 0000848  71.9101 288.1984 15.08829165 97967,6917.914,95.438,540.365,539.192,0.0
54063.0,STARLINK-5225,PAYLOAD,2024-07-29 00:08:02,15.08833741,8.55e-05,53.2163,106.7557,78.2447,281.8641,0.00093983,0.00014699,0.0,0 STARLINK-5225,1 54063U 22136N   24211.00558761  .00014699  00000-0  93983-3 0  9998,2 54063  53.2163 106.7557 0000855  78.2447 281.8641 15.08833741 98457,6917.9,95.438,540.356,539.173,0.0
54063.0,STARLINK-5225,PAYLOAD,2024-07-29 09:40:21,15.08856635,8.55e-05,53.2168,104.9711,79.8143,280.2946,0.0012062,0.0001897,0.0,0 STARLINK-5225,1 54063U 22136N   24211.40302368  .00018970  00000-0  12062-2 0  9996,2 54063  53.2168 104.9711 0000855  79.8143 280.2946 15.08856635 98519,6917.83,95.437,540.286,539.103,0.0
